IRIDIUM 166             
1 43570U 18061B   25159.47530443  .00000138  00000+0  42098-4 0  9995
2 43570  86.3994 212.8727 0002456  87.1918 272.9558 14.34216633359839
IRIDIUM 158             
1 43571U 18061C   25159.23428907  .00000125  00000+0  37710-4 0  9992
2 43571  86.3994 212.9831 0002486  95.6746 264.4734 14.34217604359766
IRIDIUM 165             
1 43572U 18061D   25159.39918927  .00000236  00000+0  77161-4 0  9993
2 43572  86.3997 212.9535 0002244  89.0392 271.1060 14.34216306359818
IRIDIUM 155             
1 43573U 18061E   25159.43090960  .00000280  00000+0  92802-4 0  9995
2 43573  86.3990 212.8279 0002627  92.7696 267.3801 14.34217501359783
IRIDIUM 154             
1 43574U 18061F   25159.20257581  .00000019  00000+0 -23628-6 0  9998
2 43574  86.3999 213.0382 0002214  92.9349 267.2101 14.34217404359807
IRIDIUM 163             
1 43575U 18061G   25159.39285414  .00000184  00000+0  58543-4 0  9999
2 43575  86.3996 212.8859 0002269  97.6608 262.4845 14.34217671359809
IRIDIUM 156             
1 43576U 18061H   25159.22794704  .00000245  00000+0  80256-4 0  9993
2 43576  86.3993 212.9617 0002667  89.3323 270.8178 14.34218234359778
IRIDIUM 164             
1 43577U 18061J   25159.41822345  .00000226  00000+0  73706-4 0  9999
2 43577  86.3995 212.9166 0002225  86.9747 273.1704 14.34218401359848
